{
"type": "FeatureCollection",
"name": "systems",
"crs": { "type": "name", "properties": { "name": "urn:ogc:def:crs:EPSG::32629" } },
"features": [
{ "type": "Feature", "properties": { "id": 0, "system": "SYS-001" }, "geometry": { "type": "MultiPolygon", "coordinates": [ [ [ [ 601010.896276471437886, 3565634.602582292165607 ], [ 601023.136391015374102, 3565635.111688384786248 ], [ 601023.136391015374102, 3565635.222262071911246 ], [ 601034.803864448214881, 3565635.635413766372949 ], [ 601034.803864448214881, 3565635.515982669778168 ], [ 601050.069487431435846, 3565636.086721458937973 ], [ 601050.108209254452959, 3565634.412002615164965 ], [ 601034.827183573506773, 3565633.863484958186746 ], [ 601034.823198567028157, 3565633.763859795872122 ], [ 601023.206496643018909, 3565633.320861138403416 ], [ 601023.200234827585518, 3565633.421050185337663 ], [ 601010.853354069869965, 3565632.943665836472064 ], [ 601010.896276471437886, 3565634.602582292165607 ] ] ], [ [ [ 601011.614399787504226, 3565624.624602766241878 ], [ 601050.788191707688384, 3565626.196443422697484 ], [ 601050.840106658055447, 3565624.928235349245369 ], [ 601049.171411824412644, 3565624.913402506150305 ], [ 601049.193661088938825, 3565624.750241233501583 ], [ 601011.646395349525847, 3565623.225610695779324 ], [ 601011.614399787504226, 3565624.624602766241878 ] ] ] ] } },
{ "type": "Feature", "properties": { "id": 1, "system": "SYS-002" }, "geometry": { "type": "MultiPolygon", "coordinates": [ [ [ [ 601012.048005260992795, 3565614.859490102622658 ], [ 601051.582251723739319, 3565616.496865364257246 ], [ 601051.621826742426492, 3565615.109853967092931 ], [ 601012.09660315013025, 3565613.441409798804671 ], [ 601012.048005260992795, 3565614.859490102622658 ] ] ] ] } },
{ "type": "Feature", "properties": { "id": 2, "system": "SYS-003" }, "geometry": { "type": "MultiPolygon", "coordinates": [ [ [ [ 601013.138283908367157, 3565605.04647834924981 ], [ 601052.500356297008693, 3565606.658018457703292 ], [ 601052.524055004469119, 3565605.615275331307203 ], [ 601013.212439730414189, 3565603.953783401288092 ], [ 601013.138283908367157, 3565605.04647834924981 ] ] ], [ [ [ 601012.518862896598876, 3565595.212347940076143 ], [ 601052.892746979021467, 3565596.881439158227295 ], [ 601052.900053722551093, 3565595.851188319735229 ], [ 601012.594988145632669, 3565594.131548333447427 ], [ 601012.518862896598876, 3565595.212347940076143 ] ] ] ] } },
{ "type": "Feature", "properties": { "id": 3, "system": "SYS-004" }, "geometry": { "type": "MultiPolygon", "coordinates": [ [ [ [ 601052.836060104775243, 3565589.032908193301409 ], [ 601052.845233059255406, 3565587.620273200795054 ], [ 601013.348955888068303, 3565585.969810666516423 ], [ 601013.345083278603852, 3565585.969810666516423 ], [ 601013.27315469016321, 3565587.383914701174945 ], [ 601052.836060104775243, 3565589.032908193301409 ] ] ], [ [ [ 601015.563654929865152, 3565579.507824704516679 ], [ 601053.173080332344398, 3565581.062181565444916 ], [ 601053.20710409025196, 3565579.677414618432522 ], [ 601015.604994432418607, 3565578.076591684948653 ], [ 601015.563654929865152, 3565579.507824704516679 ] ] ] ] } }
]
}
